{
  "type": "FeatureCollection",
  "features": [
    {
      "type": "Feature",
      "properties": {
        "norad_id": 34852,
        "name": "COSMOS 2251 DEB",
        "group": "cosmos-2251-debris",
        "lat": 47.501433481723566,
        "lon": -85.11276676961154,
        "alt_km": 756.4943945371351,
        "timestamp": "2025-12-16T03:53:27.450548+00:00",
        "meta_object_name": "COSMOS 2251 DEB",
        "meta_object_id": "1993-036ABW",
        "meta_epoch": "2025-12-14T11:33:36.116064",
        "meta_mean_motion": 14.37006693,
        "meta_eccentricity": 0.00162936,
        "meta_inclination": 74.033,
        "meta_ra_of_asc_node": 259.7687,
        "meta_arg_of_pericenter": 2.5812,
        "meta_mean_anomaly": 357.5423,
        "meta_ephemeris_type": 0,
        "meta_classification_type": "U",
        "meta_norad_cat_id": 34852,
        "meta_element_set_no": 999,
        "meta_rev_at_epoch": 87559,
        "meta_bstar": 0.0001528022,
        "meta_mean_motion_dot": 4.27e-06,
        "meta_mean_motion_ddot": 0,
        "tle_line1": "1 34852U 93036ABW 25348.48166801  .00000427  00000+0  15280-3 0  9990",
        "tle_line2": "2 34852  74.0330 259.7687 0016293   2.5812 357.5423 14.37006693875596"
      },
      "geometry": {
        "type": "Point",
        "coordinates": [
          -85.11276676961154,
          47.501433481723566
        ]
      }
    },
    {
      "type": "Feature",
      "properties": {
        "norad_id": 34854,
        "name": "COSMOS 2251 DEB",
        "group": "cosmos-2251-debris",
        "lat": 71.97011433571409,
        "lon": -146.49678773144322,
        "alt_km": 678.9985702047325,
        "timestamp": "2025-12-16T03:53:27.450558+00:00",
        "meta_object_name": "COSMOS 2251 DEB",
        "meta_object_id": "1993-036ABY",
        "meta_epoch": "2025-12-15T04:45:22.226688",
        "meta_mean_motion": 14.7665217,
        "meta_eccentricity": 0.00661202,
        "meta_inclination": 74.0284,
        "meta_ra_of_asc_node": 153.763,
        "meta_arg_of_pericenter": 264.9541,
        "meta_mean_anomaly": 94.4084,
        "meta_ephemeris_type": 0,
        "meta_classification_type": "U",
        "meta_norad_cat_id": 34854,
        "meta_element_set_no": 999,
        "meta_rev_at_epoch": 71918,
        "meta_bstar": 0.00051179086,
        "meta_mean_motion_dot": 3.674e-05,
        "meta_mean_motion_ddot": 0,
        "tle_line1": "1 34854U 93036ABY 25349.19817392  .00003674  00000+0  51179-3 0  9993",
        "tle_line2": "2 34854  74.0284 153.7630 0066120 264.9541  94.4084 14.76652170719186"
      },
      "geometry": {
        "type": "Point",
        "coordinates": [
          -146.49678773144322,
          71.97011433571409
        ]
      }
    },
    {
      "type": "Feature",
      "properties": {
        "norad_id": 34856,
        "name": "COSMOS 2251 DEB",
        "group": "cosmos-2251-debris",
        "lat": 20.5984847294225,
        "lon": -108.38204910170965,
        "alt_km": 535.0375103301494,
        "timestamp": "2025-12-16T03:53:27.450569+00:00",
        "meta_object_name": "COSMOS 2251 DEB",
        "meta_object_id": "1993-036ACA",
        "meta_epoch": "2025-12-15T08:23:09.320352",
        "meta_mean_motion": 15.0621822,
        "meta_eccentricity": 0.00326007,
        "meta_inclination": 73.9961,
        "meta_ra_of_asc_node": 79.4818,
        "meta_arg_of_pericenter": 217.4103,
        "meta_mean_anomaly": 216.3401,
        "meta_ephemeris_type": 0,
        "meta_classification_type": "U",
        "meta_norad_cat_id": 34856,
        "meta_element_set_no": 999,
        "meta_rev_at_epoch": 89151,
        "meta_bstar": 0.0012135652,
        "meta_mean_motion_dot": 0.00018014,
        "meta_mean_motion_ddot": 0,
        "tle_line1": "1 34856U 93036ACA 25349.34941343  .00018014  00000+0  12136-2 0  9999",
        "tle_line2": "2 34856  73.9961  79.4818 0032600 217.4103 216.3401 15.06218220891517"
      },
      "geometry": {
        "type": "Point",
        "coordinates": [
          -108.38204910170965,
          20.5984847294225
        ]
      }
    },
    {
      "type": "Feature",
      "properties": {
        "norad_id": 34857,
        "name": "COSMOS 2251 DEB",
        "group": "cosmos-2251-debris",
        "lat": -49.64197152313617,
        "lon": 80.58857115806852,
        "alt_km": 697.6375924920931,
        "timestamp": "2025-12-16T03:53:27.450579+00:00",
        "meta_object_name": "COSMOS 2251 DEB",
        "meta_object_id": "1993-036ACB",
        "meta_epoch": "2025-12-15T00:41:55.180032",
        "meta_mean_motion": 14.58919291,
        "meta_eccentricity": 0.00657675,
        "meta_inclination": 74.0154,
        "meta_ra_of_asc_node": 102.4616,
        "meta_arg_of_pericenter": 226.5367,
        "meta_mean_anomaly": 252.0718,
        "meta_ephemeris_type": 0,
        "meta_classification_type": "U",
        "meta_norad_cat_id": 34857,
        "meta_element_set_no": 999,
        "meta_rev_at_epoch": 87934,
        "meta_bstar": 0.00075958271,
        "meta_mean_motion_dot": 3.639e-05,
        "meta_mean_motion_ddot": 0,
        "tle_line1": "1 34857U 93036ACB 25349.02911088  .00003639  00000+0  75958-3 0  9997",
        "tle_line2": "2 34857  74.0154 102.4616 0065767 226.5367 252.0718 14.58919291879347"
      },
      "geometry": {
        "type": "Point",
        "coordinates": [
          80.58857115806852,
          -49.64197152313617
        ]
      }
    },
    {
      "type": "Feature",
      "properties": {
        "norad_id": 34859,
        "name": "COSMOS 2251 DEB",
        "group": "cosmos-2251-debris",
        "lat": -49.81195439108949,
        "lon": 172.35206975513344,
        "alt_km": 525.4655970106232,
        "timestamp": "2025-12-16T03:53:27.450589+00:00",
        "meta_object_name": "COSMOS 2251 DEB",
        "meta_object_id": "1993-036ACD",
        "meta_epoch": "2025-12-13T10:27:28.319616",
        "meta_mean_motion": 15.14950815,
        "meta_eccentricity": 0.00020891,
        "meta_inclination": 74.0317,
        "meta_ra_of_asc_node": 338.2099,
        "meta_arg_of_pericenter": 342.6349,
        "meta_mean_anomaly": 143.1101,
        "meta_ephemeris_type": 0,
        "meta_classification_type": "U",
        "meta_norad_cat_id": 34859,
        "meta_element_set_no": 999,
        "meta_rev_at_epoch": 88369,
        "meta_bstar": 0.0080515741,
        "meta_mean_motion_dot": 0.00153394,
        "meta_mean_motion_ddot": 0,
        "tle_line1": "1 34859U 93036ACD 25347.43574444  .00153394  00000+0  80516-2 0  9992",
        "tle_line2": "2 34859  74.0317 338.2099 0002089 342.6349 143.1101 15.14950815883691"
      },
      "geometry": {
        "type": "Point",
        "coordinates": [
          172.35206975513344,
          -49.81195439108949
        ]
      }
    },
    {
      "type": "Feature",
      "properties": {
        "norad_id": 34861,
        "name": "COSMOS 2251 DEB",
        "group": "cosmos-2251-debris",
        "lat": -14.758434200130896,
        "lon": 39.5299490541526,
        "alt_km": 559.6623354436897,
        "timestamp": "2025-12-16T03:53:27.450599+00:00",
        "meta_object_name": "COSMOS 2251 DEB",
        "meta_object_id": "1993-036ACF",
        "meta_epoch": "2025-12-14T22:23:33.182880",
        "meta_mean_motion": 15.02732232,
        "meta_eccentricity": 0.00072969,
        "meta_inclination": 74.0188,
        "meta_ra_of_asc_node": 46.3699,
        "meta_arg_of_pericenter": 40.6265,
        "meta_mean_anomaly": 137.686,
        "meta_ephemeris_type": 0,
        "meta_classification_type": "U",
        "meta_norad_cat_id": 34861,
        "meta_element_set_no": 999,
        "meta_rev_at_epoch": 88125,
        "meta_bstar": 0.0015301121,
        "meta_mean_motion_dot": 0.00020479,
        "meta_mean_motion_ddot": 0,
        "tle_line1": "1 34861U 93036ACF 25348.93302295  .00020479  00000+0  15301-2 0  9991",
        "tle_line2": "2 34861  74.0188  46.3699 0007296  40.6265 137.6860 15.02732232881258"
      },
      "geometry": {
        "type": "Point",
        "coordinates": [
          39.5299490541526,
          -14.758434200130896
        ]
      }
    },
    {
      "type": "Feature",
      "properties": {
        "norad_id": 34874,
        "name": "COSMOS 2251 DEB",
        "group": "cosmos-2251-debris",
        "lat": -19.53408957297123,
        "lon": -106.6918783602206,
        "alt_km": 786.7478447498461,
        "timestamp": "2025-12-16T03:53:27.450640+00:00",
        "meta_object_name": "COSMOS 2251 DEB",
        "meta_object_id": "1993-036ACM",
        "meta_epoch": "2025-12-14T16:34:14.608704",
        "meta_mean_motion": 14.36321954,
        "meta_eccentricity": 0.00509023,
        "meta_inclination": 74.0398,
        "meta_ra_of_asc_node": 70.1822,
        "meta_arg_of_pericenter": 94.8958,
        "meta_mean_anomaly": 58.1509,
        "meta_ephemeris_type": 0,
        "meta_classification_type": "U",
        "meta_norad_cat_id": 34874,
        "meta_element_set_no": 999,
        "meta_rev_at_epoch": 87072,
        "meta_bstar": 0.00076670437,
        "meta_mean_motion_dot": 2.25e-05,
        "meta_mean_motion_ddot": 0,
        "tle_line1": "1 34874U 93036ACM 25348.69044686  .00002250  00000+0  76670-3 0  9999",
        "tle_line2": "2 34874  74.0398  70.1822 0050902  94.8958  58.1509 14.36321954870728"
      },
      "geometry": {
        "type": "Point",
        "coordinates": [
          -106.6918783602206,
          -19.53408957297123
        ]
      }
    }
  ]
}